EXCITE                  
1 43819U 18099BP  26068.69809098  .00002813  00000+0  19631-3 0  9999
2 43819  97.4107 111.3606 0017626 337.4818  22.5634 15.06036758396774
STARLINK-3261           
1 50193U 21125AP  26068.71101257  .00003251  00000+0  22228-3 0  9994
2 50193  53.2156 239.0268 0001058  81.2953 278.8159 15.08834454236782
